[{"OBJECT_NAME":"QIANFAN-95","OBJECT_ID":"2025-233E","EPOCH":"2026-03-09T23:24:28.052352","MEAN_MOTION":13.51015531,"ECCENTRICITY":0.00021432,"INCLINATION":88.9943,"RA_OF_ASC_NODE":52.6837,"ARG_OF_PERICENTER":92.1551,"MEAN_ANOMALY":267.9846,"EPHEMERIS_TYPE":0,"CLASSIFICATION_TYPE":"U","NORAD_CAT_ID":66037,"ELEMENT_SET_NO":999,"REV_AT_EPOCH":2008,"BSTAR":8.5907025e-5,"MEAN_MOTION_DOT":6.7e-7,"MEAN_MOTION_DDOT":0},{"OBJECT_NAME":"SL-16 DEB","OBJECT_ID":"1995-058C","EPOCH":"2026-03-09T22:28:17.000832","MEAN_MOTION":13.74408553,"ECCENTRICITY":0.01993431,"INCLINATION":70.9979,"RA_OF_ASC_NODE":269.9435,"ARG_OF_PERICENTER":185.0884,"MEAN_ANOMALY":299.3345,"EPHEMERIS_TYPE":0,"CLASSIFICATION_TYPE":"U","NORAD_CAT_ID":23706,"ELEMENT_SET_NO":999,"REV_AT_EPOCH":52168,"BSTAR":0.00016225109,"MEAN_MOTION_DOT":1.34e-6,"MEAN_MOTION_DDOT":0}]
